     2              NAVIGATION DATA                         RINEX VERSION / TYPE
CCRINEXN V1.6.0 UX  CDDIS               30-AUG-16 15:33     PGM / RUN BY / DATE 
IGS BROADCAST EPHEMERIS FILE                                COMMENT             
    0.6519D-08  0.1490D-07 -0.5960D-07 -0.1192D-06          ION ALPHA           
    0.7782D+05  0.3277D+05 -0.6554D+05 -0.1966D+06          ION BETA            
   -0.372529029846D-08-0.799360577730D-14   147456     1912 DELTA-UTC: A0,A1,T,W
    17                                                      LEAP SECONDS        
                                                            END OF HEADER       
11 16  8 29 20  0  0.0-0.661570113152D-03-0.238742359215D-11 0.000000000000D+00
    0.880000000000D+02-0.122093750000D+03 0.599917846129D-08 0.268107409560D+01
   -0.642240047455D-05 0.167856359621D-01 0.474974513054D-05 0.515368096924D+04
    0.158400000000D+06 0.208616256714D-06 0.198731129789D+01-0.160187482834D-06
    0.897591238061D+00 0.252812500000D+03 0.156339237551D+01-0.863643117060D-08
   -0.277154401736D-09 0.100000000000D+01 0.191200000000D+04 0.000000000000D+00
    0.400000000000D+01 0.000000000000D+00-0.121071934700D-07 0.880000000000D+02
    0.153588000000D+06 0.400000000000D+01 0.000000000000D+00 0.000000000000D+00
12 16  8 29 20  0  0.0 0.388163141906D-03 0.341060513165D-12 0.000000000000D+00
    0.300000000000D+02 0.119968750000D+03 0.372336937899D-08 0.197094867621D+01
    0.615604221821D-05 0.603857531678D-02 0.768527388573D-05 0.515367186546D+04
    0.158400000000D+06-0.856816768646D-07 0.323995827338D+00-0.726431608200D-07
    0.990433369263D+00 0.244156250000D+03 0.787727885308D+00-0.782925469131D-08
    0.421446126351D-09 0.100000000000D+01 0.191200000000D+04 0.000000000000D+00
    0.200000000000D+01 0.000000000000D+00-0.125728547573D-07 0.300000000000D+02
    0.151200000000D+06 0.400000000000D+01 0.000000000000D+00 0.000000000000D+00
13 16  8 29 20  0  0.0-0.405958853662D-04-0.227373675443D-11 0.000000000000D+00
    0.630000000000D+02-0.142812500000D+02 0.461876381862D-08-0.274895413670D+01
   -0.709667801857D-06 0.403790106066D-02 0.555627048016D-05 0.515367538071D+04
    0.158400000000D+06 0.428408384323D-07-0.171009486111D+01 0.260770320892D-07
    0.970485599112D+00 0.280218750000D+03 0.197475384609D+01-0.800890503161D-08
   -0.371086885830D-09 0.100000000000D+01 0.191200000000D+04 0.000000000000D+00
    0.200000000000D+01 0.000000000000D+00-0.111758708954D-07 0.630000000000D+02
    0.151218000000D+06 0.400000000000D+01 0.000000000000D+00 0.000000000000D+00
14 16  8 29 20  0  0.0-0.323872081935D-04-0.193267624127D-11 0.000000000000D+00
    0.102000000000D+03-0.825000000000D+01 0.492984820511D-08-0.132523703202D+01
   -0.456348061562D-06 0.895259587560D-02 0.481493771076D-05 0.515404208183D+04
    0.158400000000D+06 0.150874257088D-06-0.174776223967D+01 0.206753611565D-06
    0.962991082958D+00 0.289593750000D+03-0.195459683184D+01-0.828748806429D-08
   -0.313584490624D-09 0.000000000000D+00 0.191200000000D+04 0.000000000000D+00
    0.280000000000D+01 0.000000000000D+00-0.931322574616D-08 0.102000000000D+03
    0.151200000000D+06 0.400000000000D+01 0.000000000000D+00 0.000000000000D+00
15 16  8 29 20  0  0.0-0.325316563249D-03-0.147792889038D-11 0.000000000000D+00
    0.650000000000D+02-0.184375000000D+01 0.564166358075D-08-0.165460408012D+01
   -0.856816768646D-07 0.836315145716D-02 0.442191958427D-05 0.515364510727D+04
    0.158400000000D+06 0.484287738800D-07-0.188724115032D+01-0.122934579849D-06
    0.929945902334D+00 0.278000000000D+03 0.494447932152D+00-0.855892778873D-08
   -0.753602805159D-10 0.100000000000D+01 0.191200000000D+04 0.000000000000D+00
    0.200000000000D+01 0.000000000000D+00-0.107102096081D-07 0.650000000000D+02
    0.151200000000D+06 0.000000000000D+00 0.000000000000D+00 0.000000000000D+00
16 16  8 29 20  0  0.0 0.368757173419D-05 0.204636307899D-11 0.000000000000D+00
    0.590000000000D+02 0.101000000000D+03 0.373872710568D-08-0.136433817416D-01
    0.547058880329D-05 0.865681585856D-02 0.797584652901D-05 0.515355695534D+04
    0.158400000000D+06 0.838190317154D-07 0.342790661510D+00 0.502914190292D-07
    0.990924934607D+00 0.240218750000D+03 0.387152051831D+00-0.790247245419D-08
    0.402159611168D-09 0.100000000000D+01 0.191200000000D+04 0.000000000000D+00
    0.200000000000D+01 0.000000000000D+00-0.107102096081D-07 0.590000000000D+02
    0.151200000000D+06 0.000000000000D+00 0.000000000000D+00 0.000000000000D+00
17 16  8 29 20  0  0.0-0.203011557460D-03 0.454747350886D-12 0.000000000000D+00
    0.600000000000D+02-0.332812500000D+02 0.463947896721D-08-0.912356250797D+00
   -0.140815973282D-05 0.111116380431D-01 0.230781733990D-05 0.515373407936D+04
    0.158400000000D+06-0.912696123123D-07 0.136324807929D+01 0.191852450371D-06
    0.977015464159D+00 0.345468750000D+03-0.192379916299D+01-0.846213819631D-08
    0.142863093678D-10 0.100000000000D+01 0.191200000000D+04 0.000000000000D+00
    0.200000000000D+01 0.000000000000D+00-0.107102096081D-07 0.600000000000D+02
    0.151200000000D+06 0.400000000000D+01 0.000000000000D+00 0.000000000000D+00
19 16  8 29 20  0  0.0-0.523677095771D-03 0.454747350886D-12 0.000000000000D+00
    0.640000000000D+02-0.476250000000D+02 0.456733310490D-08 0.220495364357D+01
   -0.257976353169D-05 0.106062871637D-01 0.232085585594D-05 0.515362600136D+04
    0.158400000000D+06-0.158324837685D-06 0.141180133702D+01-0.219792127609D-06
    0.974151001802D+00 0.343437500000D+03 0.853087968092D+00-0.824641492485D-08
   -0.235724104569D-10 0.100000000000D+01 0.191200000000D+04 0.000000000000D+00
    0.200000000000D+01 0.000000000000D+00-0.149011611938D-07 0.640000000000D+02
    0.151200000000D+06 0.400000000000D+01 0.000000000000D+00 0.000000000000D+00
20 16  8 29 20  0  0.0 0.432772561908D-03 0.204636307899D-11 0.000000000000D+00
    0.190000000000D+02 0.238437500000D+02 0.529379193625D-08-0.178003881923D+01
    0.131130218506D-05 0.467682699673D-02 0.103637576103D-04 0.515378901291D+04
    0.158400000000D+06 0.838190317154D-07-0.295890546853D+01 0.109896063805D-06
    0.926849213436D+00 0.160375000000D+03 0.142608512724D+01-0.826462996930D-08
    0.484663045304D-09 0.100000000000D+01 0.191200000000D+04 0.000000000000D+00
    0.200000000000D+01 0.000000000000D+00-0.838190317154D-08 0.190000000000D+02
    0.157140000000D+06 0.400000000000D+01 0.000000000000D+00 0.000000000000D+00
21 16  8 29 20  0  0.0-0.531216617674D-03-0.568434188608D-12 0.000000000000D+00
    0.800000000000D+02-0.133281250000D+03 0.496199259459D-08 0.160941762888D+01
   -0.715628266334D-05 0.233873516554D-01 0.919587910175D-05 0.515357057190D+04
    0.158400000000D+06-0.197440385819D-06 0.233471692320D+01-0.610947608948D-06
    0.937326994060D+00 0.197437500000D+03-0.176443819061D+01-0.834641866732D-08
   -0.107147318795D-09 0.100000000000D+01 0.191200000000D+04 0.000000000000D+00
    0.200000000000D+01 0.000000000000D+00-0.977888703346D-08 0.800000000000D+02
    0.151200000000D+06 0.000000000000D+00 0.000000000000D+00 0.000000000000D+00
22 16  8 29 20  0  0.0 0.258961692452D-03-0.989075488178D-11 0.000000000000D+00
    0.230000000000D+02 0.292187500000D+02 0.534343686131D-08-0.140911570177D+01
    0.158324837685D-05 0.750252814032D-02 0.975467264652D-05 0.515374626732D+04
    0.158400000000D+06 0.447034835815D-07-0.290680787482D+01 0.149011611938D-06
    0.923465991551D+00 0.169593750000D+03-0.187113484359D+01-0.834463330176D-08
    0.434660962517D-09 0.100000000000D+01 0.191200000000D+04 0.000000000000D+00
    0.200000000000D+01 0.000000000000D+00-0.176951289177D-07 0.230000000000D+02
    0.151200000000D+06 0.400000000000D+01 0.000000000000D+00 0.000000000000D+00
23 16  8 29 20  0  0.0-0.187979545444D-03-0.136424205266D-11 0.000000000000D+00
    0.610000000000D+02-0.731250000000D+01 0.528664878157D-08-0.220043766959D+01
   -0.486150383949D-06 0.111600784585D-01 0.441819429398D-05 0.515361763382D+04
    0.158400000000D+06 0.122934579849D-06-0.182795268666D+01-0.135973095894D-06
    0.945135177405D+00 0.284500000000D+03-0.253439186556D+01-0.839963559282D-08
   -0.617882880159D-10 0.100000000000D+01 0.191200000000D+04 0.000000000000D+00
    0.200000000000D+01 0.000000000000D+00-0.200234353542D-07 0.610000000000D+02
    0.151200000000D+06 0.400000000000D+01 0.000000000000D+00 0.000000000000D+00
25 16  8 29 20  0  0.0-0.236114952713D-03-0.693489710102D-11 0.000000000000D+00
    0.900000000000D+01 0.119375000000D+03 0.396052211450D-08 0.143384093081D+01
    0.607036054134D-05 0.557479693089D-02 0.812113285065D-05 0.515371083260D+04
    0.158400000000D+06-0.223517417908D-07 0.271995839524D+00 0.558793544769D-08
    0.978600989402D+00 0.229125000000D+03 0.791549529112D+00-0.798390399022D-08
    0.334299639207D-09 0.100000000000D+01 0.191200000000D+04 0.000000000000D+00
    0.200000000000D+01 0.000000000000D+00 0.558793544769D-08 0.900000000000D+01
    0.151200000000D+06 0.400000000000D+01 0.000000000000D+00 0.000000000000D+00
26 16  8 29 20  0  0.0-0.458881258964D-03-0.795807864051D-11 0.000000000000D+00
    0.890000000000D+02 0.108250000000D+03 0.430303659371D-08 0.890150592402D+00
    0.566802918911D-05 0.927229644731D-03 0.838376581669D-05 0.515357394981D+04
    0.158400000000D+06-0.372529029846D-08 0.261372940352D+00-0.931322574616D-08
    0.960520858006D+00 0.217031250000D+03-0.285540543053D-01-0.805462097020D-08
    0.346800171913D-09 0.100000000000D+01 0.191200000000D+04 0.000000000000D+00
    0.200000000000D+01 0.000000000000D+00 0.698491930962D-08 0.890000000000D+02
    0.151200000000D+06 0.000000000000D+00 0.000000000000D+00 0.000000000000D+00
